,ReportBaseId,MultipleFormsFiled,ReportingAgencyId,ReportingAgencyTypeId,RevisionDate,PostmarkDate,ReasonId,CrossingId,CrossingIdSuffix,ReportStatus,ReportType,CreatedDate,CreatedBy,LastUpdatedDate,Railroad,StateCD,CntyCD,Nearest,CityCD,Street,BlockNumb,Highway,SepInd,SepRr1,SepRr2,SepRr3,SepRr4,MultFrmsFiled,SameInd,SameRr1,SameRr2,SameRr3,SameRr4,RrID,Ttstn,TtstnNam,RrMain,XingOwnr,TypeXing,XPurpose,PosXing,OpenPub,TypeTrnSrvcIDs,DevelTypID,XingAdj,XngAdjNo,Whistban,WhistDate,HscoRrid,Latitude,Longitude,LLsource,RrNarr1,RrNarr2,RrNarr3,RrNarr4,StNarr1,StNarr2,StNarr3,StNarr4,PolCont,RrCont,HwyCont,OperatingRailroadCode,OperatingRailroadType,RrDiv,RrSubDiv,Branch,PrfxMilePost,MilePost,SfxMilePost,Lt1PassMov,PassCnt,DayThru,NghtThru,TotalSwt,TotalLtr,Lt1Mov,WeekTrnMov,YearTrnMov,MaxTtSpd,MinSpd,MaxSpd,MainTrk,SidingTrk,YardTrk,TransitTrk,IndustryTrk,OthrTrk,OthrTrkDes,SpselIDs,Sgnleqp,EMonitorDvce,HealthMonitor,NoSigns,XBuck,StopStd,YieldStd,AdvWarn,AdvW10_1,AdvW10_2,AdvW10_3,AdvW10_4,AdvW10_11,AdvW10_12,Low_Grnd,Low_GrndSigns,PaveMrkIDs,Channel,Exempt,EnsSign,OthSgn,OthSgn1,OthDes1,OthSgn2,OthDes2,OthSgn3,OthDes3,PrvxSign,Led,Gates,GatePed,GateConf,FlashOv,FlashNov,CFlashType,FlashPost,FlashPostType,Bkl_FlashPost,Sdl_FlashPost,FlashPai,AwdIDate,AwhornChk,AwhornlDate,HwyTrafSignl,Wigwags,Bells,SpecPro,FlashOth,FlashOthDes,HwynrSig,Intrprmp,PrempType,HwtrfPsig,HwtrfPsigsdis,HwtrfPsiglndis,MonitorDev,WdCode,TraficLn,TraflnType,HwyPved,Downst,Illumina,XSurfDate,XSurfWidth,XSurfLength,XSurfaceIDs,XSurOthr,HwyNear,HwynDist,XAngle,ComPower,HwySys,HwyClassCD,HwyClassrdtpID,StHwy1,HwySpeed,HwySpeedps,LrsRouteid,LrsMilePost,Aadt,AadtYear,PctTruk,SchlBusChk,SchlBsCnt,HazmtVeh,EmrgncySrvc,geometry
13,992322,0,11815,2,1989-04-05T00:00:00,,16,604865A,SSW,Published,Major,,Migration,0001-01-01T00:00:00,SSW,29,29037,1,290376360,,,,,,,,,,,,,,,RIS 266.93,566888,GREENWOOD,,,2,1,1,,,16,,,0,,,,,,,,,,,,,,,,5737517125,SSW,Primary,KANSAS CITY,2,ST. LOUIS,,0266.93,,,0,0,0.0,0.0,,,,,0,0,0,0,,,,,0,,,,,,2,0,0,,,,,,,,,,,,,,,2,,,,,,,2,,0,,,0,0,,0,,,,0,,,,2,0,0,,0,,,,,,,,,1,,,,,,,,,,,,,,,,,,,,,,,,,,2,0,,,POINT EMPTY
14,992323,0,11815,2,1989-04-05T00:00:00,,16,604871D,SSW,Published,Major,,Migration,0001-01-01T00:00:00,SSW,29,29037,1,290376360,,,,,,,,,,,,,,,RIS 264.67,569916,PLEASANT HILL,,,2,1,1,,,16,,,0,,,,,,,,,,,,,,,,5737517125,SSW,Primary,KANSAS CITY,2,ST. LOUIS,,0264.67,,,0,0,0.0,0.0,,,,,0,0,0,0,,,,,0,,,,,,2,0,0,,,,,,,,,,,,,,,2,,,,,,,2,,0,,,0,0,,0,,,,0,,,,2,0,0,,0,,,,,,,,,1,,,,,,,,,,,,,,,,,,,,,,,,,,2,0,,,POINT EMPTY
15,992324,0,11815,2,1989-04-05T00:00:00,,16,604868V,SSW,Published,Major,,Migration,0001-01-01T00:00:00,SSW,29,29037,1,290376360,,,,,,,,,,,,,,,RIS 266.00,569916,PLEASANT HILL,,,2,1,1,,,16,,,0,,,,,,,,,,,,,,,,5737517125,SSW,Primary,KANSAS CITY,2,ST. LOUIS,,0266.00,,,0,0,0.0,0.0,,,,,0,0,0,0,,,,,0,,,,,,2,0,0,,,,,,,,,,,,,,,2,,,,,,,2,,0,,,0,0,,0,,,,0,,,,2,0,0,,0,,,,,,,,,1,,,,,,,,,,,,,,,,,,,,,,,,,,2,0,,,POINT EMPTY
16,992325,0,11815,2,1989-04-05T00:00:00,,16,604869C,SSW,Published,Major,,Migration,0001-01-01T00:00:00,SSW,29,29037,1,290376360,,,,,,,,,,,,,,,RIS 265.67,569916,PLEASANT HILL,,,2,1,1,,,16,,,0,,,,,,,,,,,,,,,,5737517125,SSW,Primary,KANSAS CITY,2,ST. LOUIS,,0265.67,,,0,0,0.0,0.0,,,,,0,0,0,0,,,,,0,,,,,,2,0,0,,,,,,,,,,,,,,,2,,,,,,,2,,0,,,0,0,,0,,,,0,,,,2,0,0,,0,,,,,,,,,1,,,,,,,,,,,,,,,,,,,,,,,,,,2,0,,,POINT EMPTY
17,992328,0,11815,2,1989-04-05T00:00:00,,16,604867N,SSW,Published,Major,,Migration,0001-01-01T00:00:00,SSW,29,29037,1,290376360,,,,,,,,,,,,,,,RIS 266.10,569916,PLEASANT HILL,,,2,1,1,,,16,,,0,,,,,,,,,,,,,,,,5737517125,SSW,Primary,KANSAS CITY,2,ST. LOUIS,,0266.10,,,0,0,0.0,0.0,,,,,0,0,0,0,,,,,0,,,,,,2,0,0,,,,,,,,,,,,,,,2,,,,,,,2,,0,,,0,0,,0,,,,0,,,,2,0,0,,0,,,,,,,,,1,,,,,,,,,,,,,,,,,,,,,,,,,,2,0,,,POINT EMPTY
18,992329,1,11815,2,1989-04-05T00:00:00,,16,604866G,SSW,Published,Major,,Migration,0001-01-01T00:00:00,SSW,29,29037,1,290376360,,,,1,MP,,,,1,2,,,,,RIS 266.70,569916,PLEASANT HILL,,,3,1,1,,,11,,,0,,,,,,,,,,,,,,,,5737517125,SSW,Primary,KANSAS CITY,2,ST. LOUIS,,0266.70,,,0,1,1.0,0.0,,,,,40,1,40,1,,,,,0,,18,2,,,1,1,0,,,,,,,,,,,0,,,,2,,,,,,,,,0,,,0,0,,0,,,,0,,,,2,0,0,,0,,,,,,,,,3,2,,2,2,,,,,18,,2,,3,2,8,0,19,2,,,,,000005,,20,2,0,,,POINT EMPTY
19,992330,0,11815,2,1989-04-05T00:00:00,,16,604877U,SSW,Published,Major,,Migration,0001-01-01T00:00:00,SSW,29,29037,1,290376360,,,,,,,,,,,,,,,RIS 261.13,569916,PLEASANT HILL,,,2,1,1,,,16,,,0,,,,,,,,,,,,,,,,5737517125,SSW,Primary,KANSAS CITY,2,ST. LOUIS,,0261.13,,,0,0,0.0,0.0,,,,,0,0,0,0,,,,,0,,,,,,2,0,0,,,,,,,,,,,,,,,2,,,,,,,2,,0,,,0,0,,0,,,,0,,,,2,0,0,,0,,,,,,,,,1,,,,,,,,,,,,,,,,,,,,,,,,,,2,0,,,POINT EMPTY
20,992331,0,11815,2,1989-04-05T00:00:00,,16,604876M,SSW,Published,Major,,Migration,0001-01-01T00:00:00,SSW,29,29037,1,290376360,,,,,,,,,,,,,,,RIS 261.83,569916,PLEASANT HILL,,,2,1,1,,,16,,,0,,,,,,,,,,,,,,,,5737517125,SSW,Primary,KANSAS CITY,2,ST. LOUIS,,0261.83,,,0,0,0.0,0.0,,,,,0,0,0,0,,,,,0,,,,,,2,0,0,,,,,,,,,,,,,,,2,,,,,,,2,,0,,,0,0,,0,,,,0,,,,2,0,0,,0,,,,,,,,,1,,,,,,,,,,,,,,,,,,,,,,,,,,2,0,,,POINT EMPTY
21,992332,0,11815,2,1989-04-05T00:00:00,,16,604875F,SSW,Published,Major,,Migration,0001-01-01T00:00:00,SSW,29,29037,1,290376360,,,MO-7,,,,,,,,,,,,RIS 261.90,569916,PLEASANT HILL,,,3,1,2,,,,,,0,,,,,,,,,,,,,,,,5737517125,SSW,Primary,KANSAS CITY,2,ST. LOUIS,,0261.90,,,0,0,0.0,0.0,,,,,0,0,0,0,,,,,0,,,,,,2,0,0,,,,,,,,,,,,,,,2,,,,,,,,,0,,,0,0,,0,,,,0,,,,2,0,0,,0,,,,,,,,,1,,,,,,,,,,,,,,,,,,,,,,,,,,2,0,,,POINT EMPTY
22,992333,0,11815,2,1989-04-05T00:00:00,,16,604870W,SSW,Published,Major,,Migration,0001-01-01T00:00:00,SSW,29,29037,1,290376360,,,,,,,,,,,,,,,RIS 265.30,569916,PLEASANT HILL,,,2,1,1,,,16,,,0,,,,,,,,,,,,,,,,5737517125,SSW,Primary,KANSAS CITY,2,ST. LOUIS,,0265.30,,,0,0,0.0,0.0,,,,,0,0,0,0,,,,,0,,,,,,2,0,0,,,,,,,,,,,,,,,2,,,,,,,2,,0,,,0,0,,0,,,,0,,,,2,0,0,,0,,,,,,,,,1,,,,,,,,,,,,,,,,,,,,,,,,,,2,0,,,POINT EMPTY
23,992334,0,11815,2,1989-04-05T00:00:00,,16,604872K,SSW,Published,Major,,Migration,0001-01-01T00:00:00,SSW,29,29037,1,290376360,,,,2,,,,,,2,,,,,RIS 263.91,569916,PLEASANT HILL,,,3,1,1,,,11,,,0,,,,,,,,,,,,,,,,5737517125,SSW,Primary,KANSAS CITY,2,ST. LOUIS,,0263.91,,,0,1,1.0,0.0,,,,,40,1,40,1,,,,,0,,18,2,,,1,1,0,,,,,,,,,,,0,,,,2,,,,,,,,,0,,,0,0,,0,,,,0,,,,2,0,0,,0,,,,,,,,,3,2,,2,2,,,,,11,,2,,3,1,8,0,19,2,,,,,000055,,20,2,0,,,POINT EMPTY
24,992335,0,11815,2,1989-04-05T00:00:00,,16,604874Y,SSW,Published,Major,,Migration,0001-01-01T00:00:00,SSW,29,29037,1,290376360,,,,,,,,,,,,,,,RIS 262.47,569916,PLEASANT HILL,,,2,1,1,,,16,,,0,,,,,,,,,,,,,,,,5737517125,SSW,Primary,KANSAS CITY,2,ST. LOUIS,,0262.47,,,0,0,0.0,0.0,,,,,0,0,0,0,,,,,0,,,,,,2,0,0,,,,,,,,,,,,,,,2,,,,,,,2,,0,,,0,0,,0,,,,0,,,,2,0,0,,0,,,,,,,,,1,,,,,,,,,,,,,,,,,,,,,,,,,,2,0,,,POINT EMPTY
25,992336,0,11815,2,1989-04-05T00:00:00,,16,604873S,SSW,Published,Major,,Migration,0001-01-01T00:00:00,SSW,29,29037,0,290376360,COMMERCE,,58,2,,,,,,2,,,,,RIS 262.97,569916,PLEASANT HILL,,,3,1,1,,,13,,,0,,,,,,,,,,,,,,,,5737517125,SSW,Primary,KANSAS CITY,2,ST. LOUIS,,0262.97,,,0,1,1.0,0.0,,,,,40,1,40,1,,,,,2,SIDING-HOU,18,2,,,1,0,0,,1,,,,,,,,,0,,,,2,,,,,,,,,2,,,0,0,,2,,,,0,,,,2,0,1,,0,,,,,,,,,8,2,,1,2,,,,,12,,2,,3,1,2,0,19,1,,,,,002780,,04,2,0,,,POINT EMPTY
26,992337,0,11815,2,1989-04-05T00:00:00,,16,604878B,SSW,Published,Major,,Migration,0001-01-01T00:00:00,SSW,29,29037,1,290376360,,,,,,,,,,,,,,,RIS 261.03,569916,PLEASANT HILL,,,2,1,1,,,16,,,0,,,,,,,,,,,,,,,,5737517125,SSW,Primary,KANSAS CITY,2,ST. LOUIS,,0261.03,,,0,0,0.0,0.0,,,,,0,0,0,0,,,,,0,,,,,,2,0,0,,,,,,,,,,,,,,,2,,,,,,,2,,0,,,0,0,,0,,,,0,,,,2,0,0,,0,,,,,,,,,1,,,,,,,,,,,,,,,,,,,,,,,,,,2,0,,,POINT EMPTY
27,992338,0,11815,2,1989-04-05T00:00:00,,16,604879H,SSW,Published,Major,,Migration,0001-01-01T00:00:00,SSW,29,29037,1,290376360,,,,2,,,,,,2,,,,,RIS 260.50,569916,PLEASANT HILL,,,3,1,1,,,11,,,0,,,,,,,,,,,,,,,,5737517125,SSW,Primary,KANSAS CITY,2,ST. LOUIS,,0260.50,,,0,1,1.0,0.0,,,,,40,1,40,1,,,,,0,,18,2,,,1,1,0,,,,,,,,,,,0,,,,2,,,,,,,,,0,,,0,0,,0,,,,0,,,,2,0,0,,0,,,,,,,,,3,2,,2,2,,,,,18,,2,,3,1,8,0,19,2,,,,,000005,,20,2,0,,,POINT EMPTY
28,992339,0,11815,2,1989-04-05T00:00:00,,16,604881J,SSW,Published,Major,,Migration,0001-01-01T00:00:00,SSW,29,29037,1,290377600,,,,,,,,,,,,,,,RIS 259.33,569912,STRASBURG,,,2,1,1,,,16,,,0,,,,,,,,,,,,,,,,5737517125,SSW,Primary,KANSAS CITY,2,ST. LOUIS,,0259.33,,,0,0,0.0,0.0,,,,,0,0,0,0,,,,,0,,,,,,2,0,0,,,,,,,,,,,,,,,2,,,,,,,2,,0,,,0,0,,0,,,,0,,,,2,0,0,,0,,,,,,,,,1,,,,,,,,,,,,,,,,,,,,,,,,,,2,0,,,POINT EMPTY
29,992340,0,11815,2,1989-04-05T00:00:00,,16,604880C,SSW,Published,Major,,Migration,0001-01-01T00:00:00,SSW,29,29037,1,290377600,,,,2,,,,,,2,,,,,RIS 259.50,569912,STRASBURG,,,3,1,1,,,11,,,0,,,,,,,,,,,,,,,,5737517125,SSW,Primary,KANSAS CITY,2,ST. LOUIS,,0259.50,,,0,1,1.0,0.0,,,,,40,1,40,1,,,,,0,,18,2,,,1,1,0,,,,,,,,,,,0,,,,2,,,,,,,,,0,,,0,0,,0,,,,0,,,,2,0,0,,0,,,,,,,,,3,1,,2,2,,,,,18,,2,,2,2,8,0,19,2,,,,,000005,,20,2,0,,,POINT EMPTY
30,992341,0,11815,2,1989-04-05T00:00:00,,16,604882R,SSW,Published,Major,,Migration,0001-01-01T00:00:00,SSW,29,29037,1,290377600,,,,,,,,,,,,,,,RIS 258.53,569912,STRASBURG,,,2,1,1,,,16,,,0,,,,,,,,,,,,,,,,5737517125,SSW,Primary,KANSAS CITY,2,ST. LOUIS,,0258.53,,,0,0,0.0,0.0,,,,,0,0,0,0,,,,,0,,,,,,2,0,0,,,,,,,,,,,,,,,2,,,,,,,2,,0,,,0,0,,0,,,,0,,,,2,0,0,,0,,,,,,,,,1,,,,,,,,,,,,,,,,,,,,,,,,,,2,0,,,POINT EMPTY
31,992342,0,11815,2,1989-04-05T00:00:00,,16,604883X,SSW,Published,Major,,Migration,0001-01-01T00:00:00,SSW,29,29037,1,290377600,,,,2,,,,,,2,,,,,RIS 258.17,569912,STRASBURG,,,3,1,1,,,11,,,0,,,,,,,,,,,,,,,,5737517125,SSW,Primary,KANSAS CITY,2,ST. LOUIS,,0258.17,,,0,1,1.0,0.0,,,,,40,1,40,1,,,,,0,,18,2,,,1,1,0,,,,,,,,,,,0,,,,2,,,,,,,,,0,,,0,0,,0,,,,0,,,,2,0,0,,0,,,,,,,,,3,2,,2,2,,,,,18,,2,,3,1,8,0,19,2,,,,,000005,,20,2,0,,,POINT EMPTY
32,992343,0,11815,2,1989-04-05T00:00:00,,16,604884E,SSW,Published,Major,,Migration,0001-01-01T00:00:00,SSW,29,29037,1,290377600,,,,,,,,,,,,,,,RIS 257.67,569912,STRASBURG,,,2,1,1,,,16,,,0,,,,,,,,,,,,,,,,5737517125,SSW,Primary,KANSAS CITY,2,ST. LOUIS,,0257.67,,,0,0,0.0,0.0,,,,,0,0,0,0,,,,,0,,,,,,2,0,0,,,,,,,,,,,,,,,2,,,,,,,2,,0,,,0,0,,0,,,,0,,,,2,0,0,,0,,,,,,,,,1,,,,,,,,,,,,,,,,,,,,,,,,,,2,0,,,POINT EMPTY
33,992344,0,11815,2,1989-04-05T00:00:00,,16,604885L,SSW,Published,Major,,Migration,0001-01-01T00:00:00,SSW,29,29037,1,290377600,,,P,2,,,,,,2,,,,,RIS 257.37,569912,STRASBURG,,,3,1,1,,,11,,,0,,,,,,,,,,,,,,,,5737517125,SSW,Primary,KANSAS CITY,2,ST. LOUIS,,0257.37,,,0,1,1.0,0.0,,,,,40,1,40,1,,,,,0,,18,2,,,1,2,0,,1,,,,,,,,,0,,,,2,,,,,,,,,0,,,0,0,,0,,,,0,,,,2,0,0,,0,,,,,,,,,3,2,,1,2,,,,,11,,2,,2,1,3,0,18,1,,,,,000354,,08,2,0,,,POINT EMPTY
34,992345,0,11815,2,1989-04-05T00:00:00,,16,604890H,SSW,Published,Major,,Migration,0001-01-01T00:00:00,SSW,29,29037,1,290377600,,,,2,,,,,,2,,,,,RIS 255.93,569912,STRASBURG,,,3,1,1,,,11,,,0,,,,,,,,,,,,,,,,5737517125,SSW,Primary,KANSAS CITY,2,ST. LOUIS,,0255.93,,,0,1,1.0,0.0,,,,,40,1,40,1,,,,,0,,18,2,,,1,1,0,,,,,,,,,,,0,,,,2,,,,,,,,,0,,,0,0,,0,,,,0,,,,2,0,0,,0,,,,,,,,,3,1,,2,2,,,,,18,,2,,1,1,8,0,19,2,,,,,000005,,20,2,0,,,POINT EMPTY
35,992346,0,11815,2,1989-04-05T00:00:00,,16,604891P,SSW,Published,Major,,Migration,0001-01-01T00:00:00,SSW,29,29037,1,290377600,,,,2,,,,,,2,,,,,RIS 255.37,569912,STRASBURG,,,3,1,1,,,11,,,0,,,,,,,,,,,,,,,,5737517125,SSW,Primary,KANSAS CITY,2,ST LOUIS,,0255.37,,,0,1,1.0,0.0,,,,,40,1,40,1,,,,,0,,18,2,,,1,1,0,,,,,,,,,,,0,,,,2,,,,,,,,,0,,,0,0,,0,,,,0,,,,2,0,0,,0,,,,,,,,,3,2,,2,2,,,,,18,,2,,3,1,8,0,19,2,,,,,000005,,20,2,0,,,POINT EMPTY
36,992347,0,11815,2,1989-04-05T00:00:00,,16,604894K,SSW,Published,Major,,Migration,0001-01-01T00:00:00,SSW,29,29037,1,290377600,,,,2,,,,,,2,,,,,RIS 252.50,569912,STRASBURG,,,3,1,1,,,11,,,0,,,,,,,,,,,,,,,,5737517125,SSW,Primary,KANSAS CITY,2,ST. LOUIS,,0252.50,,,0,1,1.0,0.0,,,,,40,1,40,1,,,,,0,,18,2,,,1,1,0,,,,,,,,,,,0,,,,2,,,,,,,,,0,,,0,0,,0,,,,0,,,,2,0,0,,0,,,,,,,,,3,2,,2,2,,,,,11,,2,,3,1,8,0,19,2,,,,,000005,,20,2,0,,,POINT EMPTY
37,992348,0,11815,2,1989-04-05T00:00:00,,16,604889N,SSW,Published,Major,,Migration,0001-01-01T00:00:00,SSW,29,29037,1,290377600,,,,,,,,,,,,,,,RIS 255.98,569912,STRASBURG,,,2,1,1,,,16,,,0,,,,,,,,,,,,,,,,5737517125,SSW,Primary,KANSAS CITY,2,ST. LOUIS,,0255.98,,,0,0,0.0,0.0,,,,,0,0,0,0,,,,,0,,,,,,2,0,0,,,,,,,,,,,,,,,2,,,,,,,2,,0,,,0,0,,0,,,,0,,,,2,0,0,,0,,,,,,,,,1,,,,,,,,,,,,,,,,,,,,,,,,,,2,0,,,POINT EMPTY
38,992349,0,11815,2,1989-04-05T00:00:00,,16,604886T,SSW,Published,Major,,Migration,0001-01-01T00:00:00,SSW,29,29037,1,290377600,,,,,,,,,,,,,,,RIS 257.17,569912,STRASBURG,,,2,1,1,,,16,,,0,,,,,,,,,,,,,,,,5737517125,SSW,Primary,KANSAS CITY,2,ST. LOUIS,,0257.17,,,0,0,0.0,0.0,,,,,0,0,0,0,,,,,0,,,,,,2,0,0,,,,,,,,,,,,,,,2,,,,,,,2,,0,,,0,0,,0,,,,0,,,,2,0,0,,0,,,,,,,,,1,,,,,,,,,,,,,,,,,,,,,,,,,,2,0,,,POINT EMPTY
39,992350,0,11815,2,1989-04-05T00:00:00,,16,604887A,SSW,Published,Major,,Migration,0001-01-01T00:00:00,SSW,29,29037,1,290377600,,,,2,,,,,,2,,,,,RIS 257.01,569912,STRASBURG,,,3,1,1,,,11,,,0,,,,,,,,,,,,,,,,5737517125,SSW,Primary,KANSAS CITY,2,ST. LOUIS,,0257.01,,,0,1,1.0,0.0,,,,,40,1,40,1,,,,,0,,18,2,,,1,1,0,,,,,,,,,,,0,,,,2,,,,,,,,,0,,,0,0,,0,,,,0,,,,2,0,0,,0,,,,,,,,,3,2,,2,2,,,,,18,,2,,3,1,8,0,19,2,,,,,000005,,20,2,0,,,POINT EMPTY
40,992412,0,11815,2,1989-04-05T00:00:00,,16,604893D,SSW,Published,Major,,Migration,0001-01-01T00:00:00,SSW,29,29037,1,290377600,,,,2,,,,,,2,,,,,RIS 253.23,569912,STRASBURG,,,3,1,1,,,11,,,0,,,,,,,,,,,,,,,,5737517125,SSW,Primary,KANSAS CITY,2,ST. LOUIS,,0253.23,,,0,1,1.0,0.0,,,,,40,1,40,1,,,,,0,,18,2,,,1,1,0,,,,,,,,,,,0,,,,2,,,,,,,,,0,,,0,0,,0,,,,0,,,,2,0,0,,0,,,,,,,,,3,2,,2,2,,,,,18,,2,,2,2,8,0,19,2,,,,,000010,,20,2,0,,,POINT EMPTY
41,992413,0,11815,2,1989-04-05T00:00:00,,16,604892W,SSW,Published,Major,,Migration,0001-01-01T00:00:00,SSW,29,29037,1,290377600,,,,,,,,,,,,,,,RIS 254.53,569912,STRASBURG,,,2,1,1,,,16,,,0,,,,,,,,,,,,,,,,5737517125,SSW,Primary,KANSAS CITY,2,ST. LOUIS,,0254.53,,,0,0,0.0,0.0,,,,,0,0,0,0,,,,,0,,,,,,2,0,0,,,,,,,,,,,,,,,2,,,,,,,2,,0,,,0,0,,0,,,,0,,,,2,0,0,,0,,,,,,,,,1,,,,,,,,,,,,,,,,,,,,,,,,,,2,0,,,POINT EMPTY
43,1090730,0,11815,2,1991-11-09T00:00:00,,16,441989P,UP,Published,Major,,Migration,0001-01-01T00:00:00,UP,29,29037,0,290376360,PRIV.,,,,,,,,,,,,,,S2270L0000,569916,PLEASANT HILL,,,2,1,1,,,14,,,0,,,,,,,,,,,,,,8008488715,,5737517125,UP,Primary,WESTERN,SEDALIA,,,0248.62,,,0,0,0.0,0.0,,,,,0,0,0,0,,,,,0,,,,,,2,0,0,,,,,,,,,,,,,,,2,,,,,,,2,,0,,,0,0,,0,,,,0,,,,2,0,0,,0,,,,,,,,,1,,,,,,,,,,,,,,,,,,,,,,,,1982,,2,0,,,POINT EMPTY
57,1238610,0,2458,1,1994-01-16T00:00:00,,16,441982S,UP,Published,Major,,Migration,0001-01-01T00:00:00,UP,29,29037,1,290376360,PRIV.,,,,,,,,,,,,,,S2280L0000,569914,AVON,,,2,1,1,,,16,,,0,,,38.755424,-94.093742,,,,,,,,,,8008488715,,5737517125,UP,Primary,WESTERN,SEDALIA,,,0251.52,,,0,19,0.0,0.0,,,,,0,0,0,0,,,,,0,,,,,,2,0,0,,,,,,,,,,,,,,,2,,,,,,,2,,0,,,0,0,,0,,,,0,,,,2,0,0,,0,,,,,,,,,1,,,,,,,,,,,,,,,,,,,,,,,,1982,,2,0,,,POINT (-98.02374253477564 35.70664133650856)
113,2406779,0,1405,1,2010-09-01T00:00:00,,16,443001F,MNA,Published,Major,,Migration,0001-01-01T00:00:00,MNA,29,29037,1,290376360,PRIV,,,,,,,,,,,,,,S2510L0000,569916,PLEASANT HILL,,,2,1,1,,,16,,,0,,,38.738457,-94.047554,,,,,,,,,,,,5737517125,MNA,Primary,SYSTEM,CARTHAGE,,,0638.30,,,0,3,0.0,0.0,,,,,40,0,0,0,,,,,0,,,,,,2,0,0,,,,,,,,,,,,,,,2,,,,,,,2,,0,,,0,0,,0,,,,0,,,,2,0,0,,0,,,,,,,,,1,,,,,,,,,,,,,,,,,,,,,,,000000,1991,,2,0,,,POINT (-98.0237420162001 35.706641207679255)
114,2406780,0,1405,1,2010-09-01T00:00:00,,16,442995W,MNA,Published,Major,,Migration,0001-01-01T00:00:00,MNA,29,29037,1,290376360,PRIV.,,,,,,,,,,,,,,S2510L0000,569916,PLEASANT HILL,,,2,1,1,,,16,,,0,,,38.723927,-94.001518,,,,,,,,,,,,5737517125,MNA,Primary,SYSTEM,CARTHAGE,,,0640.50,,,0,3,0.0,0.0,,,,,40,0,0,0,,,,,0,,,,,,2,0,0,,,,,,,,,,,,,,,2,,,,,,,2,,0,,,0,0,,0,,,,0,,,,2,0,0,,0,,,,,,,,,1,,,,,,,,,,,,,,,,,,,,,,,000000,1991,,2,0,,,POINT (-98.02374150080948 35.7066411006363)
115,2406781,0,1405,1,2010-09-01T00:00:00,,16,442992B,MNA,Published,Major,,Migration,0001-01-01T00:00:00,MNA,29,29037,1,290376360,PRIV.,,,,,,,,,,,,,,S2510L0000,569916,PLEASANT HILL,,,2,1,1,,,16,,,0,,,38.721207,-93.937622,,,,,,,,,,,,5737517125,MNA,Primary,SYSTEM,CARTHAGE,,,0641.50,,,0,3,0.0,0.0,,,,,40,0,0,0,,,,,0,,,,,,2,0,0,,,,,,,,,,,,,,,2,,,,,,,2,,0,,,0,0,,0,,,,0,,,,2,0,0,,0,,,,,,,,,1,,,,,,,,,,,,,,,,,,,,,,,000000,1991,,2,0,,,POINT (-98.02374079630123 35.70664110858947)
116,2406782,0,1405,1,2010-09-01T00:00:00,,16,442991U,MNA,Published,Major,,Migration,0001-01-01T00:00:00,MNA,29,29037,1,290376360,PRIV.,,,,,,,,,,,,,,S2510L0000,569916,PLEASANT HILL,,,2,1,1,,,16,,,0,,,38.73344,-93.898911,,,,,,,,,,,,5737517125,MNA,Primary,SYSTEM,CARTHAGE,,,0642.10,,,0,3,0.0,0.0,,,,,40,0,0,0,,,,,0,,,,,,2,0,0,,,,,,,,,,,,,,,2,,,,,,,2,,0,,,0,0,,0,,,,0,,,,2,0,0,,0,,,,,,,,,1,,,,,,,,,,,,,,,,,,,,,,,000000,1991,,2,0,,,POINT (-98.02374037809709 35.706641237938946)
117,2406783,0,1405,1,2010-09-01T00:00:00,,16,442990M,MNA,Published,Major,,Migration,0001-01-01T00:00:00,MNA,29,29037,1,290376360,PRIV,,,,,,,,,,,,,,S2510L0000,569916,PLEASANT HILL,,,2,1,1,,,16,,,0,,,38.736172,-93.893715,,,,,,,,,,,,5737517125,MNA,Primary,SYSTEM,CARTHAGE,,,0642.40,,,0,3,0.0,0.0,,,,,40,0,0,0,,,,,0,,,,,,2,0,0,,,,,,,,,,,,,,,2,,,,,,,2,,0,,,0,0,,0,,,,0,,,,2,0,0,,0,,,,,,,,,1,,,,,,,,,,,,,,,,,,,,,,,000000,1991,,2,0,,,POINT (-98.02374032264021 35.70664126507995)
146,4607888,0,2458,1,2020-04-21T00:00:00,,14,441988H,UP,Published,Major,,UP.RIMS@tavlasolutions.com,0001-01-01T00:00:00,UP,29,29037,0,290376360,MO 7,,MO-7,2,,,,,2,1,ATK,,,,,569916,,-1,UP,3,1,2,,"11,12",11,2,,0,,-1,38.7786663,-94.2654432,1,,,,,,,,,8008488715,4025443721,5737517125,UP,Primary,Heartland,Sedalia Sub,#N\A,,0248.610,,2,4,11,11.0,0.0,0.0,2,,2017.0,50,20,50,1,0,0,0,0,0,,14,2,2,2,2,0,0,,0,0,,,,,,2,0,,5,2,,2,0,,0,,,,,,0,,,0,0,,0,,,,0,-1,,,2,0,0,,0,,,,,2,,,,,0,,2,2,2,,,,,,2,,,2,,,,2,,,,,3185,1991,,2,0,,,POINT (-98.02374443782078 35.706641458079226)
147,4730695,0,2458,1,2020-11-12T00:00:00,,14,441991R,UP,Published,Major,,UP.RIMS@tavlasolutions.com,0001-01-01T00:00:00,UP,29,29037,1,290376360,Karg Road,,TBD,2,,,,,2,1,ATK,,,,,569916,,-1,UP,3,1,1,,"11,12",11,2,,0,,-1,38.7749723,-94.2437579,1,,,,,,,,,8008488715,4025443721,5737517125,UP,Primary,Heartland,Sedalia Sub,#N\A,,0247.420,,2,3,8,7.0,0.0,0.0,2,,2020.0,70,27,55,1,0,0,0,0,0,,11,1,2,2,1,0,0,0,0,,,,,,,2,0,0,5,2,1,2,0,,0,,,,,,2,0,1,0,0,0,2,2,1,2,4,-1,2,,2,0,2,,0,,,,,2,,,,8,2,2,2,2,2,,,24,11,,1,75,3,1,8,0,19,2,,,,,5,1989,20,1,2,,,POINT (-98.02374419700145 35.70664143591978)
148,4730696,0,2458,1,2020-11-12T00:00:00,,14,441993E,UP,Published,Major,,UP.RIMS@tavlasolutions.com,0001-01-01T00:00:00,UP,29,29037,1,290376360,Francy Road,,TBD,2,,,,,2,1,ATK,,,,,569916,,-1,UP,3,1,1,,"11,12",11,2,,0,,-1,38.7718777,-94.2252781,1,,,,,,,,,8008488715,4025443721,5737517125,UP,Primary,Heartland,Sedalia Sub,#N\A,,0246.390,,2,3,8,7.0,0.0,0.0,2,,2020.0,70,27,55,1,0,0,0,0,0,,11,1,2,2,1,0,0,0,0,,,,,,,2,,0,5,,1,2,1,,0,,,,,,2,0,1,0,0,0,2,2,1,1,5,-1,2,,2,0,2,,0,,,,,,,,,8,2,2,2,2,2,,,24,11,,1,75,3,1,8,0,19,2,10,,,,5,1989,20,1,2,,,POINT (-98.02374399181292 35.7066414175146)
149,4730697,0,2458,1,2020-11-12T00:00:00,,14,441994L,UP,Published,Major,,UP.RIMS@tavlasolutions.com,0001-01-01T00:00:00,UP,29,29037,1,290377600,Rogers Road,,cr,2,,,,,2,1,ATK,,,,,,,-1,UP,3,1,1,,"11,12",11,2,,0,,-1,38.7697956,-94.2129007,1,,,,,,,,,8008488715,4025443721,5737517125,UP,Primary,Heartland,Sedalia Sub,#N\A,,0245.700,,2,3,8,7.0,0.0,0.0,2,,2020.0,70,27,55,1,0,0,0,0,,,11,1,2,2,1,0,0,0,1,2,,,,,,2,,0,5,2,1,2,,,,,,,,,2,0,1,0,0,0,2,2,1,1,6,022015,2,,2,,2,0,0,,2,1,,2,,,0,8,2,2,2,2,2,,,24,11,,1,75,3,1,8,0,19,2,10,1,,,52,2014,40,1,2,,2,POINT (-98.02374385437592 35.70664140510286)
150,4730698,0,2458,1,2020-11-12T00:00:00,,14,441995T,UP,Published,Major,,UP.RIMS@tavlasolutions.com,0001-01-01T00:00:00,UP,29,29037,1,290377600,Beattie Road,,TBD,2,,,,,2,1,ATK,,,,,569912,,-1,UP,3,1,1,,"11,12",11,2,,0,,-1,38.7681449,-94.2031221,1,,,,,,,,,8008488715,4025443721,5737517125,UP,Primary,Heartland,Sedalia Sub,#N\A,,0245.150,,2,3,8,7.0,0.0,0.0,2,,2020.0,70,27,55,1,0,0,0,0,0,,11,1,2,2,1,0,0,0,0,,,,,,,2,0,0,5,2,1,2,1,,0,,,,,,2,0,1,0,0,,2,2,1,1,5,-1,2,,2,0,2,,0,,,,,2,,,,8,2,2,2,2,2,,,24,11,,1,75,3,1,8,0,19,2,0,,,,30,1989,20,1,2,,,POINT (-98.02374374579207 35.70664139524543)
151,4730699,0,2458,1,2020-11-12T00:00:00,,14,442001C,UP,Published,Major,,UP.RIMS@tavlasolutions.com,0001-01-01T00:00:00,UP,29,29037,0,290377600,5th Street,,E,2,,,,,2,1,ATK,,,,,569912,,-1,UP,3,1,1,,"11,12",13,2,,0,,-1,38.7603976,-94.1660933,1,,,,,,,,,8008488715,4025443721,5737517125,UP,Primary,Heartland,Sedalia Sub,#N\A,,0243.050,,2,3,8,7.0,0.0,0.0,2,,2020.0,70,30,55,1,1,0,0,0,1,PASSING,11,1,2,2,1,0,0,0,0,,,,,,,2,0,"1,2",5,2,1,2,2,,0,,,,,,2,0,1,0,0,,2,2,1,2,4,-1,2,,2,0,2,,0,,,,,2,,,,8,2,2,1,2,2,,,30,14,,1,75,3,1,3,0,18,1,,,,,351,1991,05,1,2,,,POINT (-98.02374333368653 35.706641344491764)
152,4730700,0,2458,1,2020-11-12T00:00:00,,14,442003R,UP,Published,Major,,UP.RIMS@tavlasolutions.com,0001-01-01T00:00:00,UP,29,29037,1,290377600,Shimel Road,,TBD,2,,,,,2,1,ATK,,,,,569912,,-1,UP,3,1,1,,"11,12",11,2,,0,,-1,38.7582381,-94.1425089,1,,,,,,,,,8008488715,4025443721,5737517125,UP,Primary,Heartland,Sedalia Sub,#N\A,,0241.770,,2,3,8,7.0,0.0,0.0,2,,2020.0,70,27,55,1,0,0,0,0,0,,11,1,2,2,1,0,0,0,0,,,,,,,2,0,0,5,2,1,2,1,,0,,,,,,2,0,1,0,0,,2,2,1,1,6,-1,2,,2,0,2,,0,,,,,2,,,,8,2,2,1,2,2,,,24,11,,1,75,3,1,8,0,19,2,,,,,30,1989,20,1,2,,,POINT (-98.02374307293084 35.706641337060596)
154,4880326,0,2458,1,2021-07-15T00:00:00,,14,441694X,UP,Published,Major,,UP.RIMS@tavlasolutions.com,0001-01-01T00:00:00,UP,29,29037,1,290377600,Private,,PRIVATE,2,,,,,2,1,ATK,,,,,569912,,-1,UP,2,1,1,2,"11,12",12,2,,0,,-1,38.7581188,-94.1255475,1,,,,,,,,,8008488715,4025443721,5737517125,UP,Primary,Heartland,Sedalia Sub,#N\A,,0240.870,,2,4,11,11.0,0.0,0.0,2,,2019.0,70,27,55,1,0,0,0,0,0,,0,2,2,2,1,0,2,0,0,,,,,,,2,0,0,5,2,1,2,1,,2,,,,1,,0,,,0,0,,0,,,,0,-1,2,,2,0,0,,0,,,,,2,,,,,2,2,2,2,2,,,16,11,,1,75,3,2,,,,2,,,,,1,,,2,0,,,POINT (-98.02374288629105 35.70664134457915)
155,4880329,0,2458,1,2021-07-15T00:00:00,,14,441992X,UP,Published,Major,,UP.RIMS@tavlasolutions.com,0001-01-01T00:00:00,UP,29,29037,1,290376360,Private,,NA,2,,,,,2,1,ATK,,,,,569916,,-1,UP,2,1,1,2,"11,12",12,2,,0,,-1,38.773269,-94.2335741,1,,,,,,,,,8008488715,4025443721,5737517125,UP,Primary,Heartland,Sedalia Sub,#N\A,,0246.860,,2,4,11,11.0,0.0,0.0,2,,2019.0,70,35,70,1,0,0,0,0,0,,0,2,2,2,1,0,2,0,0,,,,,,,2,0,0,5,2,1,2,1,,2,,,,1,,0,,,0,0,,0,,,,0,-1,2,,2,0,0,,0,,,,,2,,,,,2,2,2,2,2,,,16,11,,1,65,3,2,,,,2,,,,,1,1991,,2,0,,,POINT (-98.02374408392798 35.70664142579561)
156,4880330,0,2458,1,2021-07-15T00:00:00,,14,441996A,UP,Published,Major,,UP.RIMS@tavlasolutions.com,0001-01-01T00:00:00,UP,29,29037,1,290377600,Private,,NA,2,,,,,2,1,ATK,,,,,569912,,-1,UP,2,1,1,2,"11,12",12,2,,0,,-1,38.7671148,-94.1970154,1,,,,,,,,,8008488715,4025443721,5737517125,UP,Primary,Heartland,Sedalia Sub,#N\A,,0244.810,,2,4,11,11.0,0.0,0.0,2,,2019.0,70,35,70,1,0,0,0,0,0,,0,2,2,2,1,0,2,0,0,,,,,,,2,0,0,5,2,1,2,1,,2,,,,1,,0,,,0,0,,0,,,,0,-1,2,,2,0,0,,0,,,,,2,,,,,2,2,2,2,2,,,16,11,,1,65,3,2,,,,2,,,,,1,1991,,2,0,,,POINT (-98.02374367798231 35.70664138909626)
157,4880331,0,2458,1,2021-07-15T00:00:00,,14,441997G,UP,Published,Major,,UP.RIMS@tavlasolutions.com,0001-01-01T00:00:00,UP,29,29037,1,290377600,Private,,NA,2,,,,,2,1,ATK,,,,,569912,,-1,UP,2,1,1,2,"11,12",12,2,,0,,-1,38.7637327,-94.1880242,1,,,,,,,,,8008488715,4025443721,5737517125,UP,Primary,Heartland,Sedalia Sub,#N\A,,0244.270,,2,4,11,11.0,0.0,0.0,2,,2019.0,70,35,70,1,0,0,0,0,0,,0,2,2,2,1,0,2,0,0,,,,,,,2,0,0,5,2,1,2,1,,2,,,,1,,0,,,0,0,,0,,,,0,-1,2,,2,0,0,,0,,,,,2,,,,,2,2,2,2,2,,,16,11,,1,200,3,2,,,,2,,,,,1,1991,,2,0,,,POINT (-98.02374357698449 35.70664136330702)
158,4880332,0,2458,1,2021-07-15T00:00:00,,14,441998N,UP,Published,Major,,UP.RIMS@tavlasolutions.com,0001-01-01T00:00:00,UP,29,29037,1,290377600,Private,,NA,2,,,,,2,1,ATK,,,,,569912,,-1,UP,2,1,1,2,"11,12",12,2,,0,,-1,38.762505,-94.1844065,1,,,,,,,,,8008488715,4025443721,5737517125,UP,Primary,Heartland,Sedalia Sub,#N\A,,0244.060,,2,4,11,11.0,0.0,0.0,2,,2019.0,70,35,70,1,0,0,0,0,0,,0,2,2,2,1,0,2,0,0,,,,,,,2,0,0,5,2,1,2,1,,2,,,,1,,0,0,,0,0,0,0,0,2,2,0,-1,2,,2,0,0,,0,,,,,2,,,,,2,2,2,2,2,,,16,11,,1,150,3,2,,,,2,,,,,1,1991,,2,0,,,POINT (-98.02374353642965 35.70664135412474)
159,4880333,0,2458,1,2021-07-15T00:00:00,,14,442002J,UP,Published,Major,,UP.RIMS@tavlasolutions.com,0001-01-01T00:00:00,UP,29,29037,1,290377600,Private,,NA,2,,,,,2,1,ATK,,,,,569912,,-1,UP,2,1,1,2,"11,12",11,2,,0,,-1,38.758924,-94.151942,1,,,,,,,,,8008488715,4025443721,5737517125,UP,Primary,Heartland,Sedalia Sub,#N\A,,0242.270,,2,4,11,11.0,0.0,0.0,2,,2019.0,70,35,70,1,0,0,0,0,0,,0,2,2,2,1,0,2,0,0,,,,,,,2,0,0,5,2,1,2,0,,0,,,,1,,0,0,,0,0,,0,,,,0,-1,2,,2,0,0,,0,,,,,2,,,,,2,2,2,2,2,,,16,11,,1,158,3,2,,,,2,,,,,1,1991,,2,0,,,POINT (-98.0237431771154 35.706641338437386)
160,4880334,0,2458,1,2021-07-15T00:00:00,,14,442004X,UP,Published,Major,,UP.RIMS@tavlasolutions.com,0001-01-01T00:00:00,UP,29,29037,1,290377600,Private,,NA,2,,,,,2,1,ATK,,,,,569912,,-1,UP,2,1,1,2,"11,12",16,2,,0,,-1,38.7581791,-94.1340942,1,,,,,,,,,8008488715,4025443721,5737517125,UP,Primary,Heartland,Sedalia Sub,#N\A,,0241.320,,2,4,11,11.0,0.0,0.0,2,,2019.0,70,35,70,1,0,0,0,0,0,,0,2,2,2,1,0,2,0,0,,,,,,,2,0,0,5,2,1,2,1,,2,,,,1,,0,,,0,0,,0,,,,0,-1,2,,2,0,0,,0,,,,,2,,,,,2,2,2,2,2,,,16,11,,1,72,3,2,,,,2,,,,,1,1991,,2,0,,,POINT (-98.02374298033732 35.706641340792295)
162,4933881,0,2458,1,2021-10-18T00:00:00,,20,441984F,UP,Published,Major,,UP.RIMS@tavlasolutions.com,0001-01-01T00:00:00,UP,29,29037,0,290376360,Wyoming Street,,TBD,2,,,,,2,1,ATK,,,,,569916,,-1,UP,3,1,1,,"11,12",13,2,,0,,-1,38.7857931,-94.2745722,1,,,,,,,,,8008488715,4025443721,5737517125,UP,Primary,Heartland,Sedalia Sub,#N\A,,0249.300,,2,3,9,9.0,0.0,0.0,2,,2020.0,50,20,50,1,1,0,0,0,1,YARD,11,1,2,2,1,0,0,0,0,,,,,,,2,0,0,5,2,1,2,2,,0,,,,,,2,0,1,0,0,0,2,2,1,2,4,-1,2,,2,0,2,,0,,,,,2,,,,8,2,2,1,2,2,,,60,14,,1,75,3,1,8,0,19,2,,,,,3500,1989,03,1,2,,,POINT (-98.02374454265922 35.706641517393905)
163,4937635,0,2458,1,2021-11-03T00:00:00,,14,441978C,UP,Published,Major,,UP.RIMS@tavlasolutions.com,0001-01-01T00:00:00,UP,29,29037,1,290376360,Private Field,,PRIVATE,2,,,,,2,1,ATK,,,,,569914,,-1,UP,2,1,1,2,"11,12",16,2,,0,,-1,38.8288575,-94.3136305,1,,,,,,,,,8008488715,4025443721,5737517125,UP,Primary,Heartland,Sedalia Sub,#N\A,,0253.020,,2,4,9,8.0,0.0,0.0,2,,2020.0,70,35,70,1,0,0,0,0,1,SIDING,0,1,2,2,1,0,2,0,0,,,,,,,2,0,0,5,2,1,2,0,,0,,,,1,,0,,,0,0,,0,,,,0,-1,2,,2,0,0,,0,,,,,2,,,,,2,2,2,2,2,,,16,11,,2,,3,1,8,0,19,2,,,,,5,1989,20,2,0,,,POINT (-98.02374499901455 35.7066418839638)
164,4937636,0,2458,1,2021-11-03T00:00:00,,14,441979J,UP,Published,Major,,UP.RIMS@tavlasolutions.com,0001-01-01T00:00:00,UP,29,29037,1,290376360,Private Field,,PRIVATE,2,,,,,2,1,ATK,,,,,569914,,-1,UP,2,1,1,2,"11,12",16,2,,0,,-1,38.8250109,-94.3069826,1,,,,,,,,,8008488715,4025443721,5737517125,UP,Primary,Heartland,Sedalia Sub,#N\A,,0252.560,,2,4,9,8.0,0.0,0.0,2,,2020.0,70,35,70,1,0,0,0,0,1,SIDING,0,1,2,2,1,0,2,0,0,,,,,,,2,0,0,5,2,1,2,0,,0,,,,1,,0,,,0,0,,0,,,,0,-1,2,,2,0,0,,0,,,,,2,,,,,2,2,2,2,2,,,16,11,,2,,3,2,,,,2,,,,,1,1982,,2,0,,,POINT (-98.0237449235033 35.706641852820724)
165,4937637,0,2458,1,2021-11-03T00:00:00,,14,441980D,UP,Published,Major,,UP.RIMS@tavlasolutions.com,0001-01-01T00:00:00,UP,29,29037,1,290376360,Private Field,,PRIVATE,2,,,,,2,1,ATK,,,,,569914,,-1,UP,2,1,1,2,"11,12",16,2,,0,,-1,38.8231019,-94.303626,1,,,,,,,,,8008488715,4025443721,5737517125,UP,Primary,Heartland,Sedalia Sub,#N\A,,0252.320,,2,4,9,8.0,0.0,0.0,2,,2020.0,70,35,70,1,0,0,0,0,0,,0,1,2,2,1,0,2,0,0,,,,,,,2,0,0,5,2,1,2,0,,0,,,,1,,0,,,0,0,,0,,,,0,-1,2,,2,0,0,,0,,,,,2,,,,,2,2,2,2,2,,,16,11,,2,,3,2,,,,2,,,,,1,1982,,2,0,,,POINT (-98.02374488539742 35.706641837394024)
166,4941258,0,47,1,2021-11-13T00:00:00,,14,442994P,MNA,Published,Major,,brandi.webster@gwrr.com,0001-01-01T00:00:00,MNA,29,29037,1,290376360,PRIVATE ROAD,,private road,2,,,,,2,2,,,,,,569916,PLEASANT HILL,-1,-1,2,1,1,2,11,16,2,,0,,-1,38.76097,-94.302065,1,no changes per brent Wilson 11/12/2021,,,,,,,,8008003490,8008003490,5737517125,MNA,Primary,southern region,NEVADA,#N\A,,0640.85,,2,0,4,2.0,0.0,0.0,2,,2018.0,40,10,40,1,0,0,0,0,0,,0,2,2,2,2,0,0,,0,,,,,,,,,,,,,2,,,,,,,2,,0,,,0,0,,0,,2,2,0,,,,2,0,0,,0,,,,,,,,,,1,2,2,2,2,,12,,18,,2,,3,2,,,,,,,,,1,1991,,2,,,,POINT (-98.02374482965305 35.706641280774186)
167,4941259,0,47,1,2021-11-13T00:00:00,,14,442996D,MNA,Published,Major,,brandi.webster@gwrr.com,0001-01-01T00:00:00,MNA,29,29037,1,290376360,E 199TH STREET,,county road,2,,,,,2,2,,,,,,569916,PLEASANT HILL,-1,-1,3,1,1,,11,11,2,,0,,-1,38.755379,-94.308374,1,no changes per brent Wilson 11/12/2021,,,,,,,,8008003490,8008003490,5737517125,MNA,Primary,southern region,NEVADA,#N\A,,0640.30,,2,0,4,2.0,0.0,0.0,2,,2018.0,40,10,40,1,0,0,0,0,0,,0,2,2,2,1,2,2,0,1,2,,,,,,2,,0,5,2,1,2,,,,,,,,,0,,,0,0,,0,,2,2,0,,,,2,0,0,,0,,,,,,,,,4,2,2,2,2,2,,24,,11,,2,,2,2,8,0,19,2,,,,,000005,1989,20,1,2,,,POINT (-98.02374489557731 35.70664122742035)
168,4941260,0,47,1,2021-11-13T00:00:00,,14,442997K,MNA,Published,Major,,brandi.webster@gwrr.com,0001-01-01T00:00:00,MNA,29,29037,1,290376360,E 205TH ST,,county road,2,,,,,2,2,,,,,,569916,PLEASANT HILL,-1,-1,3,1,3,,11,16,2,,0,,-1,38.745078,-94.314653,1,no changes per brent Wilson 11/12/2021,,,,,,,,8008003490,8008003490,5737517125,MNA,Primary,southern region,NEVADA,#N\A,,0639.60,,2,0,4,2.0,0.0,0.0,2,,2018.0,40,10,40,1,0,0,0,0,0,,0,2,2,2,2,0,0,0,0,,,,,,,2,,0,5,2,1,2,,,,,,,,,0,,,0,0,,0,,2,2,0,,,,2,0,0,,0,,,,,,,,,,2,2,,,,,,,,,,,,,,,,,,,,,1,1991,,2,,,,POINT (-98.0237449582474 35.706641131826395)
169,4941262,0,47,1,2021-11-13T00:00:00,,14,443002M,MNA,Published,Major,,brandi.webster@gwrr.com,0001-01-01T00:00:00,MNA,29,29037,1,290376360,S ORE ROAD,,county road,2,,,,,2,2,,,,,,569916,PLEASANT HILL,-1,-1,3,1,1,,11,11,2,,0,,-1,38.730762,-94.33052,1,no changes per brent Wilson 11/12/2021,,,,,,,,8008003490,8008003490,5737517125,MNA,Primary,southern region,NEVADA,#N\A,,0638.20,,2,0,4,2.0,0.0,0.0,2,,2018.0,40,20,40,1,0,0,0,0,0,,0,2,2,2,1,2,2,0,0,,,,,,,2,,0,5,2,1,2,,,,,,,,,0,,,0,0,,0,,2,2,0,,,,2,0,0,,0,,,,,,,,,4,2,2,2,2,2,,24,,11,,2,,3,1,8,0,19,2,,,,,000010,1989,20,1,2,,,POINT (-98.02374512388735 35.70664099535712)
174,4944407,0,1405,1,2021-11-29T00:00:00,,20,442993H,MNA,Published,Major,,brandi.webster@gwrr.com,0001-01-01T00:00:00,MNA,29,29037,1,290376360,PRIVATE ROAD,,NA,2,,,,,2,2,,,,,,569916,PLEASANT HILL,-1,-1,2,1,1,2,11,16,2,,0,,-1,38.765999,-94.29606,1,,,,,,,,,8008003490,8008003490,5737517125,MNA,Primary,CENTRAL,NEVADA,#N\A,,0641.30,,2,0,4,2.0,0.0,0.0,2,,2018.0,40,10,20,1,0,0,0,0,0,,0,2,2,2,2,0,0,0,0,,,,,,,,,,,,,2,,,,,,,2,,0,,,0,0,,0,,2,2,0,,,,2,0,0,,0,,,,,,,,,,1,2,2,2,2,,16,,11,,2,,3,2,,,,,,,,,1,1991,,2,,,,POINT (-98.0237447667237 35.70664132893215)
175,5019558,0,2458,1,2022-03-28T00:00:00,,14,441977V,UP,Published,Major,,UP.RIMS@tavlasolutions.com,0001-01-01T00:00:00,UP,29,29037,0,290376360,Private Field,,PRIVATE,2,,,,,2,1,ATK,,,,,566888,,-1,UP,2,1,1,2,"11,12",16,2,,0,,-1,38.8459157,-94.3323854,1,,,,,,,,,8008488715,4025443721,5737517125,UP,Primary,Heartland,Sedalia Sub,#N\A,,0254.580,,2,4,9,8.0,0.0,0.0,2,,2020.0,70,35,70,1,0,0,0,0,1,(N/S),0,1,2,2,1,0,2,0,0,,,,,,,2,0,0,5,2,1,2,0,,0,,,,1,,0,,,0,0,,0,,,,0,-1,2,,2,0,0,,0,,,,,2,,,,,2,2,2,2,2,,,16,11,,2,,3,2,,,,2,,,,,1,1982,,2,0,,,POINT (-98.02374521589826 35.706642027502724)
186,5063633,0,11815,2,2022-07-25T00:00:00,,14,442998S,MNA,Published,Major,,larry.scheperle@modot.mo.gov,0001-01-01T00:00:00,MNA,29,29037,1,290376360,MO-RT-P,,STATE ROUTE P,2,,,,,2,2,,,,,,569916,PLEASANT HILL,-1,-1,3,1,1,,11,11,2,,0,,-1,38.73457,-94.322922,1,no changes per brent Wilson 11/12/2021,,,,,,,,8008003490,8008003490,5737517125,MNA,Primary,southern region,NEVADA,#N\A,,0638.60,,2,0,4,2.0,0.0,0.0,2,,2018.0,40,20,40,1,0,0,0,0,0,,11,2,2,2,1,2,0,,1,2,,,,,,2,,0,5,2,1,2,,,,,,,,,0,,,4,0,2,0,,2,2,6,-1,2,,2,0,1,0,0,,2,1,,2,0,0,0,7,2,2,1,2,2,,48,,14,,N,0,2,1,3,0,18,1,,N,,,000142,1989,05,1,0,,,POINT (-98.02374504267785 35.70664103336766)
191,5105323,0,11815,2,2022-12-13T00:00:00,,14,442989T,MNA,Published,Major,,larry.scheperle@modot.mo.gov,0001-01-01T00:00:00,MNA,29,29037,0,290376360,MO 58 / 1st street,,MO 58,2,,,,,2,2,,,,,,569916,PLEASANT HILL,-1,-1,3,1,1,,11,13,2,,0,,-1,38.782148,-94.271483,1,,,,,,,,,8008003490,8008003490,5737517125,MNA,Primary,CENTRAL,NEVADA,#N\A,,0643.20,,2,0,4,2.0,0.0,0.0,2,,2018.0,20,5,10,1,0,0,0,0,0,,11,1,1,2,1,2,0,0,1,2,,,,,,2,,"1,2",5,2,1,1,2,W10-1 ADV,,,,,,,2,,1,0,0,,2,2,2,2,4,052017,2,,2,0,2,0,0,,2,1,,2,0,0,0,8,2,2,1,2,2,052017,40,,14,,N,0,3,1,3,1,16,2,35,N,,,002210,2010,05,2,0,,,POINT (-98.02374450641673 35.706641486256544)
195,5123968,0,2458,1,2023-02-08T00:00:00,,20,441981K,UP,Published,Major,,UP.RIMS@tavlasolutions.com,0001-01-01T00:00:00,UP,29,29037,0,290376360,South Hereford Road,,NA,2,,,,,2,1,ATK,,,,,569914,,-1,UP,2,1,1,1,"11,12",16,2,,0,,-1,38.817418,-94.298162,1,,,,,,,,,8008488715,4025443721,5737517125,UP,Primary,Heartland,Sedalia Sub,#N\A,,0251.830,,2,4,9,8.0,0.0,0.0,2,,2020.0,70,35,70,1,0,0,0,0,0,,0,2,2,2,1,0,2,0,0,,,,,,,2,0,0,5,2,1,2,0,,0,,,,1,,0,0,,0,0,,0,,,,0,-1,2,,2,0,0,,0,,,,,2,,,,,2,2,2,2,2,,,24,11,,1,65,3,2,,,,2,,,,,1,1982,,2,0,,,POINT (-98.02374482176774 35.706641789168295)
229,5190933,0,2458,1,2023-08-07T00:00:00,,20,441983Y,UP,Published,Major,,UP.RIMS@tavlasolutions.com,0001-01-01T00:00:00,UP,29,29037,1,290376360,East 175th Street,,TBD,2,,,,,2,1,ATK,,,,,569916,,-1,UP,3,1,1,,"11,12",11,2,,0,,-1,38.7977237,-94.2845592,1,,,,,,,,,8008488715,4025443721,5737517125,UP,Primary,Heartland,Sedalia Sub,#N\A,,0250.290,,2,3,9,9.0,0.0,0.0,2,,2020.0,70,27,55,1,0,0,0,0,0,,11,1,2,2,1,0,0,0,0,,,,,,,2,0,0,5,2,1,2,0,,0,,,,,,2,0,1,0,0,,2,2,1,2,4,-1,2,,2,0,2,,0,,,,,2,,,,8,2,2,2,2,2,,,32,14,,2,,2,1,8,0,19,2,,,,,55,1989,10,1,2,,,POINT (-98.02374465991757 35.70664161937095)
230,5190936,0,2458,1,2023-08-07T00:00:00,,20,441986U,UP,Published,Major,,UP.RIMS@tavlasolutions.com,0001-01-01T00:00:00,UP,29,29037,0,290376360,Commerical Street,,TBD,2,,,,,2,1,ATK,,,,,569916,,-1,UP,3,1,1,,"11,12",13,2,,0,,-1,38.7847719,-94.2734558,1,,,,,,,,,8008488715,4025443721,5737517125,UP,Primary,Heartland,Sedalia Sub,#N\A,,0249.210,,2,3,9,9.0,0.0,0.0,2,,2020.0,50,20,50,1,1,0,0,0,1,YARD,11,1,2,2,1,0,0,0,0,,,,,,,2,0,0,5,2,1,2,2,,0,,,,,,2,0,1,0,0,,2,2,1,2,4,-1,2,,2,0,2,,0,,,,,2,,,,8,2,2,1,2,2,,,40,14,,1,75,3,1,8,0,19,2,,,,,2400,1989,03,2,0,,,POINT (-98.02374452974544 35.706641508797624)
231,5190939,0,2458,1,2023-08-07T00:00:00,,20,441990J,UP,Published,Major,,UP.RIMS@tavlasolutions.com,0001-01-01T00:00:00,UP,29,29037,1,290376360,Walker Road,,TBD,2,,,,,2,1,ATK,,,,,569916,,-1,UP,3,1,1,,"11,12",11,2,,0,,-1,38.777207,-94.257529,1,,,,,,,,,8008488715,4025443721,5737517125,UP,Primary,Heartland,Sedalia Sub,#N\A,,0248.180,,2,3,9,9.0,0.0,0.0,2,,2020.0,70,35,70,1,1,0,0,0,1,PASSING,11,1,2,2,1,0,0,0,0,,,,,,,2,0,0,5,2,1,2,2,,0,,,,,,2,0,1,0,0,,2,2,1,2,4,-1,2,,2,0,2,,0,,,,,2,,,,8,2,2,1,2,2,,,40,14,,1,75,3,1,8,0,19,2,,,,,60,1989,20,2,0,,,POINT (-98.02374434986311 35.706641448994816)
232,5190956,0,2458,1,2023-08-07T00:00:00,,20,442988L,UP,Published,Major,,UP.RIMS@tavlasolutions.com,0001-01-01T00:00:00,UP,29,29037,0,290376360,SH 58,,MO 58,2,,,,,,2,,,,,S2510L0000,569916,PLEASANT HILL,-1,UP,3,1,1,,11,11,2,,0,,,38.780507,-94.269599,1,,,,,,,,,8008488715,4025443721,5737517125,UP,Primary,Heartland,SEDALIA Sub,EAST WYE,,0248.860,,2,0,0,0.0,0.0,0.0,1,1.0,2020.0,10,5,10,1,0,0,0,0,1,E.LEG WYE,0,2,2,2,1,2,0,2,0,,,,,,,,,"1,2",,,,2,,,,,,,,,0,,,0,0,,0,,,,0,,,,2,0,0,,0,,,,,,,,,3,2,,1,2,,,,,12,,1,75,2,1,2,0,19,1,,,,,002778,1982,05,2,0,,,POINT (-98.023744484675 35.706641472488485)
